     2.100          NAVIGATION                              RINEX VERSION / TYPE
fic2rin                                 01/22/2009 01:24:32 PGM / RUN BY / DATE
                                                            END OF HEADER
 5 09  1 21  1 59 44.0 -.573840923607D-03 -.529780663783D-10  .000000000000D+00
     .240000000000D+02 -.468125000000D+02  .478627079596D-08 -.722296274608D+00
    -.241398811340D-05  .936828064732D-02  .883266329765D-05  .515363707542D+04
     .266384000000D+06 -.465661287308D-07 -.329291760484D+00  .115483999252D-06
     .945223834630D+00  .202687500000D+03  .129626299735D+01 -.817605485122D-08
     .293583657509D-09  .100000000000D+01  .151500000000D+04  .000000000000D+00
     .240000000000D+01  .000000000000D+00 -.419095158577D-08  .240000000000D+02
     .260436000000D+06  .400000000000D+01
 6 09  1 21  1 59 44.0  .856416299939D-04 -.125055521494D-10  .000000000000D+00
     .400000000000D+01  .275000000000D+01  .535415159333D-08 -.976157920598D+00
     .244006514549D-06  .564544263761D-02  .668130815029D-05  .515370480156D+04
     .266384000000D+06 -.894069671631D-07  .767988038242D+00  .633299350739D-07
     .933619541253D+00  .239781250000D+03 -.147598952733D+01 -.840142138149D-08
     .160363822654D-09  .100000000000D+01  .151500000000D+04  .000000000000D+00
     .240000000000D+01  .000000000000D+00 -.465661287308D-08  .400000000000D+01
     .263856000000D+06  .400000000000D+01
30 09  1 21  1 59 44.0  .121097546071D-03  .238742359215D-11  .000000000000D+00
     .900000000000D+01 -.431250000000D+02  .462412118464D-08 -.125783807007D+01
    -.212341547012D-05  .111528058769D-01  .879168510437D-05  .515365376663D+04
     .266384000000D+06 -.745058059692D-08 -.276161547031D+00  .262632966042D-06
     .951174986839D+00  .204937500000D+03  .141502158983D+01 -.802283418325D-08
     .270011247052D-09  .100000000000D+01  .151500000000D+04  .000000000000D+00
     .240000000000D+01  .000000000000D+00 -.791624188423D-08  .900000000000D+01
     .264006000000D+06  .400000000000D+01
13 09  1 21  1 59 44.0  .285721849650D-03  .136424205266D-11  .000000000000D+00
     .230000000000D+02 -.843750000000D+00  .391087718945D-08 -.246831866727D+01
     .428408384323D-07  .370566442143D-02  .252388417721D-05  .515376362610D+04
     .266384000000D+06  .223517417908D-07 -.227553355704D+01  .391155481339D-07
     .995283797039D+00  .350906250000D+03  .150724035994D+01 -.791140097018D-08
     .146434671020D-10  .100000000000D+01  .151500000000D+04  .000000000000D+00
     .240000000000D+01  .000000000000D+00 -.111758708954D-07  .230000000000D+02
     .265986000000D+06  .400000000000D+01
 3 09  1 21  3 59 44.0  .341847073287D-03  .534328137292D-11  .000000000000D+00
     .900000000000D+01 -.375000000000D+00  .542165440510D-08 -.246149963598D+01
    -.949949026108D-07  .116111800307D-01  .641308724880D-05  .515372406960D+04
     .273584000000D+06  .132247805595D-06  .701368143073D+00 -.949949026108D-07
     .926159288103D+00  .236593750000D+03  .889539714385D+00 -.821677083292D-08
     .246795994329D-09  .100000000000D+01  .151500000000D+04  .000000000000D+00
     .240000000000D+01  .000000000000D+00 -.419095158577D-08  .900000000000D+01
     .266406000000D+06  .400000000000D+01
 5 09  1 21  3 59 44.0 -.574222300202D-03 -.529780663783D-10  .000000000000D+00
     .250000000000D+02 -.536875000000D+02  .478484216502D-08  .327868569408D+00
    -.282749533653D-05  .936748366803D-02  .874139368534D-05  .515363544273D+04
     .273584000000D+06 -.119209289551D-06 -.329350414721D+00  .540167093277D-07
     .945225859308D+00  .203625000000D+03  .129630405560D+01 -.816212569958D-08
     .248224625266D-09  .100000000000D+01  .151500000000D+04  .000000000000D+00
     .240000000000D+01  .000000000000D+00 -.419095158577D-08  .250000000000D+02
     .266406000000D+06  .400000000000D+01
 6 09  1 21  3 59 44.0  .855512917042D-04 -.125055521494D-10  .000000000000D+00
     .500000000000D+01  .103125000000D+01  .533486507569D-08  .739837507945D-01
     .800937414169D-07  .564528920222D-02  .660866498947D-05  .515370441628D+04
     .273584000000D+06 -.119209289551D-06  .767927817219D+00 -.335276126862D-07
     .933620600405D+00  .240218750000D+03 -.147596332647D+01 -.839606401548D-08
     .101432796512D-09  .100000000000D+01  .151500000000D+04  .000000000000D+00
     .240000000000D+01  .000000000000D+00 -.465661287308D-08  .500000000000D+01
     .266406000000D+06  .400000000000D+01
13 09  1 21  3 59 44.0  .285732094198D-03  .136424205266D-11  .000000000000D+00
     .240000000000D+02  .584375000000D+01  .395480759075D-08 -.141851161205D+01
     .394880771637D-06  .370609981474D-02  .285357236862D-05  .515376127815D+04
     .273584000000D+06 -.149011611938D-07 -.227559053038D+01  .540167093277D-07
     .995283799965D+00  .344937500000D+03  .150755567584D+01 -.793568769610D-08
     .132148361653D-10  .100000000000D+01  .151500000000D+04  .000000000000D+00
     .240000000000D+01  .000000000000D+00 -.111758708954D-07  .240000000000D+02
     .266406000000D+06  .400000000000D+01
30 09  1 21  3 59 44.0  .121114775538D-03  .238742359215D-11  .000000000000D+00
     .190000000000D+02 -.504062500000D+02  .469233831187D-08 -.207691190692D+00
    -.261515378952D-05  .111519651255D-01  .882521271706D-05  .515365189171D+04
     .273584000000D+06 -.119209289551D-06 -.276220312450D+00  .782310962677D-07
     .951176654566D+00  .205875000000D+03  .141506942579D+01 -.814748223248D-08
     .296083761649D-09  .100000000000D+01  .151500000000D+04  .000000000000D+00
     .240000000000D+01  .000000000000D+00 -.791624188423D-08  .190000000000D+02
     .266406000000D+06  .400000000000D+01
 2 09  1 21  4  0  0.0  .160668976605D-03 -.170530256582D-11  .000000000000D+00
     .130000000000D+02  .350937500000D+02  .482341520032D-08 -.210529367336D+01
     .188313424587D-05  .891173293348D-02  .869482755661D-05  .515360593033D+04
     .273600000000D+06 -.208616256714D-06  .184797829576D+01 -.614672899246D-07
     .941564125617D+00  .203750000000D+03  .270403837650D+01 -.800676208521D-08
    -.291083553370D-09  .100000000000D+01  .151500000000D+04  .000000000000D+00
     .240000000000D+01  .000000000000D+00 -.172294676304D-07  .130000000000D+02
     .266406000000D+06  .400000000000D+01
 4 09  1 21  4  0  0.0 -.307221896946D-03 -.135287336889D-10  .000000000000D+00
     .440000000000D+02  .301250000000D+02  .492556231230D-08  .734724675089D+00
     .170804560184D-05  .864059710875D-02  .817514955997D-05  .515366302299D+04
     .273600000000D+06 -.223517417908D-07  .186651837445D+01  .121071934700D-06
     .940815433402D+00  .210750000000D+03  .466185374515D+00 -.813641034272D-08
    -.397516558160D-09  .100000000000D+01  .151500000000D+04  .000000000000D+00
     .240000000000D+01  .000000000000D+00 -.605359673500D-08  .440000000000D+02
     .266406000000D+06  .400000000000D+01
 7 09  1 21  4  0  0.0  .232197344303D-04 -.227373675443D-12  .000000000000D+00
     .540000000000D+02 -.919687500000D+02  .437982529445D-08  .235953466718D+01
    -.470876693726D-05  .230833212845D-02  .603310763836D-05  .515368374252D+04
     .273600000000D+06 -.558793544769D-08 -.128176517343D+01  .465661287308D-07
     .965532906047D+00  .267468750000D+03  .292223394220D+01 -.801176229349D-08
    -.725030200418D-10  .100000000000D+01  .151500000000D+04  .000000000000D+00
     .240000000000D+01  .000000000000D+00 -.107102096081D-07  .540000000000D+02
     .266406000000D+06  .400000000000D+01
 8 09  1 21  4  0  0.0 -.187233556062D-03 -.159161572810D-11  .000000000000D+00
     .177000000000D+03 -.967500000000D+02  .384730311276D-08  .169220843909D+01
    -.476837158203D-05  .105038477341D-01  .669434666634D-05  .515369252205D+04
     .273600000000D+06  .409781932831D-07 -.122400397430D+01  .117346644402D-06
     .986729020767D+00  .264156250000D+03  .297368666260D+01 -.773960810003D-08
    -.195008122871D-09  .100000000000D+01  .151500000000D+04  .000000000000D+00
     .340000000000D+01  .000000000000D+00 -.419095158577D-08  .177000000000D+03
     .266406000000D+06  .400000000000D+01
 9 09  1 21  4  0  0.0  .360915437341D-04  .204636307899D-11  .000000000000D+00
     .230000000000D+02 -.106187500000D+03  .412517182996D-08  .143027404395D+01
    -.586360692978D-05  .201468013693D-01  .547617673874D-05  .515365963364D+04
     .273600000000D+06 -.214204192162D-06 -.131672015996D+01 -.460073351860D-06
     .974481665176D+00  .285562500000D+03  .145775400771D+01 -.803354891527D-08
    -.557166065346D-10  .100000000000D+01  .151500000000D+04  .000000000000D+00
     .240000000000D+01  .000000000000D+00 -.558793544769D-08  .230000000000D+02
     .266406000000D+06  .400000000000D+01
10 09  1 21  4  0  0.0 -.983383506536D-05 -.568434188608D-12  .000000000000D+00
     .130000000000D+02  .103125000000D+03  .439696886569D-08 -.122446944558D+01
     .535510480404D-05  .848123861942D-02  .652670860291D-05  .515377706337D+04
     .273600000000D+06  .175088644028D-06  .293153501150D+01 -.521540641785D-07
     .960429190097D+00  .248625000000D+03  .581699494119D+00 -.799247577584D-08
     .507163982558D-10  .100000000000D+01  .151500000000D+04  .000000000000D+00
     .240000000000D+01  .000000000000D+00 -.279396772385D-08  .130000000000D+02
     .266406000000D+06  .400000000000D+01
11 09  1 21  4  0  0.0  .992882996798D-05 -.102318153949D-11  .000000000000D+00
     .900000000000D+02  .756250000000D+01  .618668627174D-08  .222184085744D+01
     .368803739548D-06  .916163832881D-02  .728480517864D-05  .515366609192D+04
     .273600000000D+06 -.149011611938D-06  .165416570648D+01 -.987201929092D-07
     .889538462127D+00  .201468750000D+03  .677896241305D+00 -.867607567909D-08
    -.276797244002D-09  .100000000000D+01  .151500000000D+04  .000000000000D+00
     .340000000000D+01  .000000000000D+00 -.121071934700D-07  .900000000000D+02
     .266406000000D+06  .400000000000D+01
